{"type": "FeatureCollection", "features": [ {"type": "Feature", "properties": {"norad_id": 58662, "name": "TIANMU-1 21", "group": "weather", "lat": 50.387971468620556, "lon": -81.2604967604418, "alt_km": 471.81481132750287, "timestamp": "2025-12-02T07:10:08.752228+00:00", "meta": {"OBJECT_NAME": "TIANMU-1 21", "OBJECT_ID": "2023-208C", "EPOCH": "2025-12-01T19:37:43.061664", "MEAN_MOTION": 15.31183282, "ECCENTRICITY": 0.000605, "INCLINATION": 97.4372, "RA_OF_ASC_NODE": 89.176, "ARG_OF_PERICENTER": 305.6371, "MEAN_ANOMALY": 54.4306, "EPHEMERIS_TYPE": 0, "CLASSIFICATION_TYPE": "U", "NORAD_CAT_ID": 58662, "ELEMENT_SET_NO": 999, "REV_AT_EPOCH": 10732, "BSTAR": 0.0003852, "MEAN_MOTION_DOT": 0.00011536, "MEAN_MOTION_DDOT": 0}, "tle": {"line1": "1 58662U 23208C   25335.81785951  .00011536  00000+0  38520-3 0  9990", "line2": "2 58662  97.4372  89.1760 0006050 305.6371  54.4306 15.31183282107327"}}, "geometry": {"type": "Point", "coordinates": [-81.2604967604418, 50.387971468620556]}}, {"type": "Feature", "properties": {"norad_id": 58663, "name": "TIANMU-1 22", "group": "weather", "lat": -17.9649937661449, "lon": -95.00545522102979, "alt_km": 490.55498238144355, "timestamp": "2025-12-02T07:10:08.752239+00:00", "meta": {"OBJECT_NAME": "TIANMU-1 22", "OBJECT_ID": "2023-208D", "EPOCH": "2025-12-01T20:52:12.994176", "MEAN_MOTION": 15.27311059, "ECCENTRICITY": 0.0003191, "INCLINATION": 97.4382, "RA_OF_ASC_NODE": 86.9946, "ARG_OF_PERICENTER": 337.3363, "MEAN_ANOMALY": 22.7735, "EPHEMERIS_TYPE": 0, "CLASSIFICATION_TYPE": "U", "NORAD_CAT_ID": 58663, "ELEMENT_SET_NO": 999, "REV_AT_EPOCH": 10717, "BSTAR": 0.00036008, "MEAN_MOTION_DOT": 9.562e-05, "MEAN_MOTION_DDOT": 0}, "tle": {"line1": "1 58663U 23208D   25335.86959484  .00009562  00000+0  36008-3 0  9995", "line2": "2 58663  97.4382  86.9946 0003191 337.3363  22.7735 15.27311059107173"}}, "geometry": {"type": "Point", "coordinates": [-95.00545522102979, -17.9649937661449]}}, {"type": "Feature", "properties": {"norad_id": 58700, "name": "TIANMU-1 15", "group": "weather", "lat": 74.27389298952117, "lon": 130.06067262200912, "alt_km": 485.768841864965, "timestamp": "2025-12-02T07:10:08.752252+00:00", "meta": {"OBJECT_NAME": "TIANMU-1 15", "OBJECT_ID": "2024-004A", "EPOCH": "2025-12-01T19:48:33.143904", "MEAN_MOTION": 15.24448553, "ECCENTRICITY": 0.0005913, "INCLINATION": 97.463, "RA_OF_ASC_NODE": 157.3347, "ARG_OF_PERICENTER": 341.8659, "MEAN_ANOMALY": 18.2366, "EPHEMERIS_TYPE": 0, "CLASSIFICATION_TYPE": "U", "NORAD_CAT_ID": 58700, "ELEMENT_SET_NO": 999, "REV_AT_EPOCH": 10568, "BSTAR": 0.00029409, "MEAN_MOTION_DOT": 7.151e-05, "MEAN_MOTION_DDOT": 0}, "tle": {"line1": "1 58700U 24004A   25335.82538361  .00007151  00000+0  29409-3 0  9994", "line2": "2 58700  97.4630 157.3347 0005913 341.8659  18.2366 15.24448553105682"}}, "geometry": {"type": "Point", "coordinates": [130.06067262200912, 74.27389298952117]}}, {"type": "Feature", "properties": {"norad_id": 58701, "name": "TIANMU-1 16", "group": "weather", "lat": 12.960965056014286, "lon": -21.066588717490962, "alt_km": 498.3045263982058, "timestamp": "2025-12-02T07:10:08.752261+00:00", "meta": {"OBJECT_NAME": "TIANMU-1 16", "OBJECT_ID": "2024-004B", "EPOCH": "2025-11-28T17:21:14.562144", "MEAN_MOTION": 15.24146454, "ECCENTRICITY": 0.00054689, "INCLINATION": 97.457, "RA_OF_ASC_NODE": 153.6495, "ARG_OF_PERICENTER": 351.9748, "MEAN_ANOMALY": 8.1401, "EPHEMERIS_TYPE": 0, "CLASSIFICATION_TYPE": "U", "NORAD_CAT_ID": 58701, "ELEMENT_SET_NO": 999, "REV_AT_EPOCH": 10521, "BSTAR": 5.4123761e-05, "MEAN_MOTION_DOT": 1.245e-05, "MEAN_MOTION_DDOT": 0}, "tle": {"line1": "1 58701U 24004B   25332.72308521  .00001245  00000+0  54124-4 0  9995", "line2": "2 58701  97.4570 153.6495 0005468 351.9748   8.1401 15.24146454105217"}}, "geometry": {"type": "Point", "coordinates": [-21.066588717490962, 12.960965056014286]}}, {"type": "Feature", "properties": {"norad_id": 58702, "name": "TIANMU-1 17", "group": "weather", "lat": -68.70636629074606, "lon": -42.034237291833215, "alt_km": 500.47884083009194, "timestamp": "2025-12-02T07:10:08.752273+00:00", "meta": {"OBJECT_NAME": "TIANMU-1 17", "OBJECT_ID": "2024-004C", "EPOCH": "2025-12-01T20:37:19.568064", "MEAN_MOTION": 15.24246886, "ECCENTRICITY": 0.0004432, "INCLINATION": 97.4602, "RA_OF_ASC_NODE": 157.1742, "ARG_OF_PERICENTER": 344.5644, "MEAN_ANOMALY": 15.5457, "EPHEMERIS_TYPE": 0, "CLASSIFICATION_TYPE": "U", "NORAD_CAT_ID": 58702, "ELEMENT_SET_NO": 999, "REV_AT_EPOCH": 10568, "BSTAR": 0.00031657, "MEAN_MOTION_DOT": 7.655e-05, "MEAN_MOTION_DDOT": 0}, "tle": {"line1": "1 58702U 24004C   25335.85925426  .00007655  00000+0  31657-3 0  9998", "line2": "2 58702  97.4602 157.1742 0004432 344.5644  15.5457 15.24246886105685"}}, "geometry": {"type": "Point", "coordinates": [-42.034237291833215, -68.70636629074606]}}, {"type": "Feature", "properties": {"norad_id": 58703, "name": "TIANMU-1 18", "group": "weather", "lat": -18.066361562623168, "lon": 160.25496268742282, "alt_km": 495.54309059802654, "timestamp": "2025-12-02T07:10:08.752285+00:00", "meta": {"OBJECT_NAME": "TIANMU-1 18", "OBJECT_ID": "2024-004D", "EPOCH": "2025-12-01T20:13:11.633664", "MEAN_MOTION": 15.24240282, "ECCENTRICITY": 0.0003804, "INCLINATION": 97.462, "RA_OF_ASC_NODE": 157.3504, "ARG_OF_PERICENTER": 346.3455, "MEAN_ANOMALY": 13.7679, "EPHEMERIS_TYPE": 0, "CLASSIFICATION_TYPE": "U", "NORAD_CAT_ID": 58703, "ELEMENT_SET_NO": 999, "REV_AT_EPOCH": 10568, "BSTAR": 0.00029906, "MEAN_MOTION_DOT": 7.226e-05, "MEAN_MOTION_DDOT": 0}, "tle": {"line1": "1 58703U 24004D   25335.84249576  .00007226  00000+0  29906-3 0  9991", "line2": "2 58703  97.4620 157.3504 0003804 346.3455  13.7679 15.24240282105686"}}, "geometry": {"type": "Point", "coordinates": [160.25496268742282, -18.066361562623168]}}, {"type": "Feature", "properties": {"norad_id": 58990, "name": "INSAT-3DS", "group": "weather", "lat": -0.01029944203560887, "lon": -98.96906236877172, "alt_km": 35780.04136656386, "timestamp": "2025-12-02T07:10:08.752297+00:00", "meta": {"OBJECT_NAME": "INSAT-3DS", "OBJECT_ID": "2024-033A", "EPOCH": "2025-12-01T19:20:27.517056", "MEAN_MOTION": 1.00269858, "ECCENTRICITY": 0.0001575, "INCLINATION": 0.0129, "RA_OF_ASC_NODE": 259.913, "ARG_OF_PERICENTER": 352.9322, "MEAN_ANOMALY": 190.3077, "EPHEMERIS_TYPE": 0, "CLASSIFICATION_TYPE": "U", "NORAD_CAT_ID": 58990, "ELEMENT_SET_NO": 999, "REV_AT_EPOCH": 4508, "BSTAR": 0, "MEAN_MOTION_DOT": -1.35e-06, "MEAN_MOTION_DDOT": 0}, "tle": {"line1": "1 58990U 24033A   25335.80587404 -.00000135  00000+0  00000+0 0  9995", "line2": "2 58990   0.0129 259.9130 0001575 352.9322 190.3077  1.00269858 45081"}}, "geometry": {"type": "Point", "coordinates": [-98.96906236877172, -0.01029944203560887]}}, {"type": "Feature", "properties": {"norad_id": 59051, "name": "METEOR-M2 4", "group": "weather", "lat": 22.178384626074426, "lon": -70.19625711975985, "alt_km": 811.4466562143352, "timestamp": "2025-12-02T07:10:08.752307+00:00", "meta": {"OBJECT_NAME": "METEOR-M2 4", "OBJECT_ID": "2024-039A", "EPOCH": "2025-12-01T20:56:04.458048", "MEAN_MOTION": 14.22398489, "ECCENTRICITY": 0.0007621, "INCLINATION": 98.6751, "RA_OF_ASC_NODE": 292.9524, "ARG_OF_PERICENTER": 28.6161, "MEAN_ANOMALY": 331.5434, "EPHEMERIS_TYPE": 0, "CLASSIFICATION_TYPE": "U", "NORAD_CAT_ID": 59051, "ELEMENT_SET_NO": 999, "REV_AT_EPOCH": 9121, "BSTAR": 4.2145e-05, "MEAN_MOTION_DOT": 5e-07, "MEAN_MOTION_DDOT": 0}, "tle": {"line1": "1 59051U 24039A   25335.87227382  .00000050  00000+0  42145-4 0  9999", "line2": "2 59051  98.6751 292.9524 0007621  28.6161 331.5434 14.22398489 91217"}}, "geometry": {"type": "Point", "coordinates": [-70.19625711975985, 22.178384626074426]}}, {"type": "Feature", "properties": {"norad_id": 60133, "name": "GOES 19", "group": "weather", "lat": -0.003342409186440555, "lon": 103.73865081497671, "alt_km": 35790.937921378856, "timestamp": "2025-12-02T07:10:08.752318+00:00", "meta": {"OBJECT_NAME": "GOES 19", "OBJECT_ID": "2024-119A", "EPOCH": "2025-12-01T18:35:24.333216", "MEAN_MOTION": 1.00271597, "ECCENTRICITY": 0.0001165, "INCLINATION": 0.0159, "RA_OF_ASC_NODE": 141.7458, "ARG_OF_PERICENTER": 156.5209, "MEAN_ANOMALY": 336.2961, "EPHEMERIS_TYPE": 0, "CLASSIFICATION_TYPE": "U", "NORAD_CAT_ID": 60133, "ELEMENT_SET_NO": 999, "REV_AT_EPOCH": 498, "BSTAR": 0, "MEAN_MOTION_DOT": -2.27e-06, "MEAN_MOTION_DDOT": 0}, "tle": {"line1": "1 60133U 24119A   25335.77458719 -.00000227  00000+0  00000+0 0  9996", "line2": "2 60133   0.0159 141.7458 0001165 156.5209 336.2961  1.00271597  4984"}}, "geometry": {"type": "Point", "coordinates": [103.73865081497671, -0.003342409186440555]}}, {"type": "Feature", "properties": {"norad_id": 65815, "name": "FENGYUN 3H", "group": "weather", "lat": -4.832840781596874, "lon": -83.1455209442603, "alt_km": 829.0630349930161, "timestamp": "2025-12-02T07:10:08.752329+00:00", "meta": {"OBJECT_NAME": "FENGYUN 3H", "OBJECT_ID": "2025-219A", "EPOCH": "2025-12-01T19:21:12.809664", "MEAN_MOTION": 14.19899557, "ECCENTRICITY": 6.55e-05, "INCLINATION": 98.6567, "RA_OF_ASC_NODE": 275.635, "ARG_OF_PERICENTER": 67.6554, "MEAN_ANOMALY": 292.4692, "EPHEMERIS_TYPE": 0, "CLASSIFICATION_TYPE": "U", "NORAD_CAT_ID": 65815, "ELEMENT_SET_NO": 999, "REV_AT_EPOCH": 937, "BSTAR": 7.3126e-05, "MEAN_MOTION_DOT": 1.12e-06, "MEAN_MOTION_DDOT": 0}, "tle": {"line1": "1 65815U 25219A   25335.80639826  .00000112  00000+0  73126-4 0  9990", "line2": "2 65815  98.6567 275.6350 0000655  67.6554 292.4692 14.19899557  9376"}}, "geometry": {"type": "Point", "coordinates": [-83.1455209442603, -4.832840781596874]}}]}